{"hampi": [{"placeName": " 1. Virupaksha Temple, Hampi", "placeDesc": "Also known as the Pampapathi temple, it is the most famous temple in Hampi and dates back to the 7th century. It is said that this temple has had a continuous run since then, making it one of the oldest functioning temples in India."}, {"placeName": " 2. Vithala Temple", "placeDesc": "The most impressive structure in Hampi, the Vithala Temple dates back to the 16th century and is a truly splendid example of rich architecture."}, {"placeName": " 3. Elephant Stables", "placeDesc": "The Elephant Stables served as an enclosure for royal elephants back in the day of the Vijayanagra Empire."}, {"placeName": " 4. Hampi Bazaar", "placeDesc": "This bazaar is facing the Virupaksha temple and hence is also known as the Virupaksha Bazaar."}, {"placeName": " 5. Queen's Bath", "placeDesc": "A part of the Royal Enclosure, this aquatic enclosure was the Royal bath during the times of the Vijayanagra Empire. It was built in such a way that no outsiders could enter the bath, and has lost much to ruins at the date."}, {"placeName": " 6. Matanga Hill", "placeDesc": "This hill is described as the location of the hermiatge of the Saint Matanga during the Ramayana, hence is appropriately named."}, {"placeName": " 7. Lotus Palace", "placeDesc": "Close to the Zenana Enclosure, is a monument that stands out in its design and style from most of the structures of Hampi. Another complex, for royal women, this one gets its name from the lotus-like dome"}, {"placeName": " 8. Monolith Bull", "placeDesc": "The ride of Lord Shiva, the bull is represented here as a sculpture placed on a high platform. It is partially ruined, but is a major attraction owing to its huge size."}, {"placeName": " 9. Big Shivlinga", "placeDesc": "Carved out of a single boulder, this Shivlinga stands at a height 3m amidst water. It is a major attraction in Hampi."}, {"placeName": " 10. Zenana Enclosure", "placeDesc": "The Zenana Enclosure was primarily the Women's Quarters. A part of the Royal Enclosure, this was a place especially for the Royal women i.e. the Queen and her friends and companions."}, {"placeName": " 11. Monkey Temple", "placeDesc": "Atop the Anjenaya Hill, this temple is dedicated to Hanumana. 570 steps must be climbed by devotees to visit this temple. The view from atop the hillock beside this temple is a feast for the eyes."}, {"placeName": " 12. Lakshmi Narasimha Temple", "placeDesc": "This temple features the biggest effigy in Hampi, of Narasimha sitting on SeshaNaag i.e. the seven headed snake acting as a shelter to him. The idol of Goddess Lakshmi is placed along with that of Narasimha."}, {"placeName": " 13. Daroji Bear Sanctuary", "placeDesc": "Established in 1994, this sanctuary was converted from a thorny forest to a lush green area which is now inhabited by Sloth Bears."}, {"placeName": " 14. Shopping in Hampi", "placeDesc": "The stone carvings by local artists are a good piece of memorabilia to take back from Hampi."}, {"placeName": " 15. Hemakuta Hill Temple Complex", "placeDesc": "The Hemakunta Hill houses a temple complex, many of them dedicated to Lord Shiva. These are all protected by a fort, providing a secluded atmosphere."}, {"placeName": " 16. Old Palace", "placeDesc": "The Old Palace, surrounded by a fort, and is in ruins as of today. It is located in Anegondi, for which kingdom this palace served as the center."}, {"placeName": " 17. Mahanavami Dibba", "placeDesc": "This structure served as a focal point from where the Vijayanagara kings ruled their Kingdom. Various aspects of courtly life are depicted on this huge structure, including a gem studded throne."}, {"placeName": " 18. Achyutraya Temple", "placeDesc": "This temple is also known as the Tiruvengalanatha Temple, after the main deity, a form of Lord Shiva."}, {"placeName": " 19. Hazara Rama Temple", "placeDesc": "At the middle of the Royal Centre, this was a place of worship for the royals. The walls and pillars are beautifully adorned with fascinating carvings, including the outside walls of the compound. This temple is smaller in size compared to the others in Hampi."}, {"placeName": " 20. Archaeological Museum", "placeDesc": "A government museum in the area houses a number of artifacts, remains, and other exhibits found during excavation."}, {"placeName": " 21. Hippie Island", "placeDesc": "Virapapur Gadde or Hippie Island is a small island situated across the Tungabhadra river. It takes 5 minutes to travel to the island via coracle or boat. The island is an epitome of scenic beauty and is known for laidback ambient and lodges."}, {"placeName": " 22. Rock climbing", "placeDesc": "Hampi is always full of rock climbers who are climbing up the boulders with their crash pads around. The landscape is ideal for rock climbing and bouldering since there are granite craigs and boulders all around. Bolting is limited, so carry a crash pad along."}, {"placeName": " 23. Anegudi village", "placeDesc": "Located on the banks of River Tungabharda, Anegundi village is famous for the Aramane Palace Ruins, the Kamal Mahal, the Huchappayana Matha Temple, the Ranganatha temple and the Nava Brindavan. The village is older than Hampi and is considered a World Heritage Site. The rich culture and the beautifu..."}, {"placeName": " 24. Kadalekalu Ganesh", "placeDesc": "Kadalekalu Ganesh is an important religious attraction in Hampi. The temple has traditional stone architecture and is located on Hemakuta Hill and has a huge 15 feet monolithic statue of Lord Ganesha which is a believed to be one of the largest in the world. The reason why the attraction is called K..."}, {"placeName": " 25. Riverside Ruins", "placeDesc": "Riverside Ruins have a splendid cluster of Shivalings carved on flat rocky surface, in addition to several shrines dedicated to Lord Vishnu and other Hindu deities, some of which are partially submerged. These Ruins are in a row of 108 lingas and a sqaurish 1008 lingas and can be spotted all across ..."}, {"placeName": " 26. King's Balance", "placeDesc": "King's Balance is an ancient 15th century attraction which was used to weigh the king with the royal Jewels every year on special occasions. The jewels were then donated to the temple priests. The structure has intricately carved pillars. It is made of granite and the pillars support a stone beam th..."}, {"placeName": " 27. Sasivekalu Ganesh", "placeDesc": "Sasivekalu Ganesh has a gigantic monolithic statue of Lord Ganesha. The statue is over 8 feet tall and was created in the memory of a Vijayanagara King - King Narasimha II. It is often associated with the legend of Ganesha when he tied a snake around his belly when his stomach was about to burst aft..."}, {"placeName": " 28. Hampi Utsav", "placeDesc": "Hampi Utsav, Hampi festival also known as the Vijaya Utsav is one of the largest celebrations of the ancient Vijayanagar empire now Hampi. The festivities take place every year at the Virupaksha Temple, commemorating the culture, traditions of the bygone era. With the beautifully carved ruins of Ham..."}, {"placeName": " 29. Cliff Jumping", "placeDesc": "Apart from wandering at the several ruins, Cliff Diving is one of the prime activities and things to do in Hampi. Especially popular among adventure buffs, the activity is enough to give you a divine adrenaline rush. However, there are signs to stay clear of crocodiles and specific points where you ..."}, {"placeName": " 30. Coracle Ride", "placeDesc": "When in Hampi, you absolutely have to get hold of a coracle and ride in one. It is one of the few places in the country where you can get such an experience and we gurantee that it is going to be a lot of fun. You can rent a coracle at really economic rates and cross the rates in the ferry that look..."}, {"placeName": " 31. Bike Riding", "placeDesc": "Riding a bike across town is a whole new way to experience the local life, green fields and local culture. This is one of the most popular activities and things to do in Hampi, among the tourists. Other than being a fun activity, it allows you to explore the town on your own. You can relax by the me..."}]}