{"jaipur": [{"placeName": " 1. Hawa Mahal", "placeDesc": "The Hawa Mahal stands at the intersection of the main road in Jaipur, Badi Chaupad. It is regarded as the signature building of Jaipur and was built by Maharaja Sawai Pratap Singh."}, {"placeName": " 2. Pink City", "placeDesc": "Jaipur is the largest city of Rajasthan popularly known as the 'Pink City'. Built about 275 years ago, today it presents the glorious past of our country through its culture and architecture."}, {"placeName": " 3. Amer Fort", "placeDesc": "Amber Fort, situated 11 kms from Jaipur, is a fort built with great artistic taste. Cradled on the top of a hill forming a beautiful reflection in Maotha Lake, it is popularly known as Amer Fort."}, {"placeName": " 4. Nahargarh Fort", "placeDesc": "Nahargarh Fort, situated on the outer skirts of Jaipur is an epitome of great architecture and planning. Drenched with rich past, the fort allows you a picturesque view of the entire city. Built in 1734, this grand architecture is a perfect way to begin the excursion of this pink city."}, {"placeName": " 5. Albert Hall Museum", "placeDesc": "Albert Hall Museum is one of the oldest museums of Rajasthan. It has a rich collection of various kinds of items such as paintings, carpets, ivory, stone, metal sculptures, colourful crystal works etc."}, {"placeName": " 6. Jantar Mantar", "placeDesc": "Jantar Mantar in Jaipur is the largest stone astronomical observatory in the World. It is located just next to the city palace of Jaipur in Rajasthan. Built during the period between 1727 and 1733, the Jantar Mantar is still in a running condition and it stands as a witness regarding the wisdom of f..."}, {"placeName": " 7. City Palace, Jaipur", "placeDesc": "Located in Jaipur, The City Palace is the main palace from where the Maharaja reigned from. The palace includes the Chandra Mahan and Mubarak Mahal along with various other buildings within the complex. It is located towards the north-eastern side of Jaipur."}, {"placeName": " 8. Abhaneri Stepwell", "placeDesc": "Also known as the Chand Baori Step Well, located in Abhaneri near Jaipur, Chandbaori spans a height of about 13 stories and has 3500 steps that lead approximately 100 feet down."}, {"placeName": " 9. Galtaji Temple", "placeDesc": "Located around 20 km from Jaipur, this temple is beautifully situated in the midst of trees and hills. One of the jewels of Jaipur, the temple complex encompasses natural fresh water springs and 7 holy 'kunds' or water tanks."}, {"placeName": " 10. Chokhi Dhani", "placeDesc": "Chokhi Dhani is a luxury heritage resort synonymous with Rajasthani village culture. It is located a little on the outskirts of the city on the Tonk Road. The concept of the village is to give you a tangible feel of rural Rajasthan. It is a true depiction of traditional Rajasthan with ancient artefa..."}, {"placeName": " 11. Jaigarh Fort", "placeDesc": "Jaigarh Fort is a grand structure perched on the top of the 'Cheel ka teela' hills designed by a talented architect called Vidhyadhar. The fort reflects the city's prosperous past and is named after the ruler who got it built, Sawai Jai Singh II."}, {"placeName": " 12. Jal Mahal", "placeDesc": "Amidst the chaos of the city of Jaipur, lies the splendid Jal Mahal, or Water Palace. Floating in the centre of the Sagar Lake, this low rise symmetrical Palace was once a shooting lodge for the Maharajas. This unique palace fascinates a large number of visitors from all over the world."}, {"placeName": " 13. Bapu Bazar", "placeDesc": "Besides the plethora of palaces and forts and havelis and wildlife, Jaipur is also the ultimate shopping paradise. Among the numerous flourishing flea markets of Jaipur is the Bapu Bazaar. Situated in the heart of the Pink city between Sanganer Gate and New Gate, the market is known for its alluring..."}, {"placeName": " 14. Birla Temple", "placeDesc": "Located on an elevated ground at the base of Moti Dungri hill in Rajasthan, the temple is also known as the Lakshmi Narayanan Temple as the Temple is dedicated to Lord Vishnu (Narayan), the preserver and his consort Lakshmi, the Goddess of wealth."}, {"placeName": " 15. Panna Meena Ka Kund", "placeDesc": "Among the several architectural marvels that the Pink City can boast of, the ancient stepwell called Panna Meena ka Kund is quite an important yet unexplored one. Established in the 16th century, the place is also known by many other names locally, some of which are just derivations of the original ..."}, {"placeName": " 16. Ram Niwas Garden", "placeDesc": "Stuffed with appealing fountains and dazzling serene pools, Ram Nivas Garden offers a tranquil and calm atmosphere for you to ease out and relax. The pink city has many such lush green gardens which add to it's beauty and tranquility such as Sisodia Rani Palace and Garden, Vidyadhar Garden, Central ..."}, {"placeName": " 17. Moti Dungri Temple", "placeDesc": "Moti Dungri temple is built on a hill above the famous Birla Temple. It is primarily a Ganesh Temple and was built to protect the city. The temple is surrounded by the beautiful Moti Dungri palace, which is an imitation of a Scottish castle."}, {"placeName": " 18. Govind Ji Temple", "placeDesc": "For Krishna followers, this is the most significant temple in the world after Vrindavan. It is believed that the statue of the deity here looks exactly like Krishna's form during his incarnation of Earth."}, {"placeName": " 19. World Trade Park", "placeDesc": "World Trade Park is situated in Malviya Nagar in Jaipur and is the second largest mall of the country. The construction of the mall costed 350 crores and it took two years to finish it. It was inaugurated in the year 2012 by Shahrukh Khan."}, {"placeName": " 20. Raj Mandir Cinema", "placeDesc": "Raj Mandir Cinema was conceptualized in the late-1960s by Mehtab Chandra Golcha. The cinema was his dream project. He wanted to build a stylish and elegant Cinema Hall where viewers would get an experience as close to royalty as possible. Raj Mandir Cinema was created with the intention of crossing ..."}, {"placeName": " 21. Anokhi Museum of Hand Printing", "placeDesc": "The Anokhi Foundation aims to preserve the centuries old customs and traditions of the artisans in Jaipur. the foundation has been running a museum, Anokhi Museum of Handmade Paintings, where it exhibits various artifacts in relation to the hand and block printing."}, {"placeName": " 22. Chand Baori", "placeDesc": "Chand Baori is a major tourist attraction site in Abhaneri village and is a very big step well with flights of steps on the three sides that lead to the water reserve."}, {"placeName": " 23. Akshardham Temple, Jaipur", "placeDesc": "Dedicated to the Hindu God, Narayan Akshardham Temple is known for its beautiful architecture, magnificent idols, sculptures, and carvings. The lush green surroundings add to its beauty and serenity."}, {"placeName": " 24. Chandpole", "placeDesc": "One of the finest specimens of Rajput architecture in Jaipur, Chand Pol offers spectacular views of the famed old bazaar and glimpses of the Rajasthani culture."}, {"placeName": " 25. Sisodia Rani Garden", "placeDesc": "Sisodia Rani Garden is a royal garden built in the premises of the Sisodia Palace in Jaipur. As the name suggests, it was built in 1728 in the honour of the Queen of Maharaja Sawai Jai Singh II as a summer retreat. The step garden, although not too large in area, is considered to be a tranquil escap..."}, {"placeName": " 26. Amrapali Museum", "placeDesc": "Amrapali Museum is one of the underrated hidden gem of Jaipur that you cannot miss. It has an exclusive display of some of the gorgeous and valuable jewels of ancient days and different styles of Indian jewellery art. You may not be interested in going to a place fully loaded with only jewels but wh..."}, {"placeName": " 27. Khole Ke Hanuman Ji Temple", "placeDesc": "Located on the Delhi bypass in Jaipur at Lakshman Dungri, Khole Ke Hanuman Ji Temple is a Hindu revered temple dedicated to Lord Hanuman. The temple is perched on a hillock and offers some panoramic views of the surrounding hills. Besides, the shrine has a spacious sanctum which can accommodate arou..."}, {"placeName": " 28. Central Park", "placeDesc": "Constructed by the Jaipur Development Authority, the Central Park of Jaipur is the largest park in the most popular city of Rajasthan, Jaipur. Located near the famous statue circle, the park is a prime hangout place for people of all ages and groups. You can have a small picnic with family and just ..."}, {"placeName": " 29. Kanak Vrindavan Garden", "placeDesc": "Kanak Vrindavan is a beautiful garden developed in the Aravalli Valley at the base of Nahargarh Hills. The garden has notable similarities to Vrindavan valleys and hence the name. It also has a temple enshrined by Lord Krishna, water fountains and exquisite marble carvings besides the verdant green ..."}, {"placeName": " 30. Rambagh Palace", "placeDesc": "Located about 8 kms from the city centre of Jaipur, Rambagh Palace is one among the finest palaces of Jaipur. Once a residence of the Maharaja of Jaipur, today the palace has been converted into a luxury heritage resort with brilliant architecture, lighting and facilities."}, {"placeName": " 31. Sargasuli Tower", "placeDesc": "Sargasuli Tower or Isar Lat is a historical heritage monument situated near Tripolia Gate of City Palace in Jaipur. The seven tiered minaret is built in a fashion similar to that of Qutub Minar in Delhi and Kirti Stambh of Chittorgarh. The tower has a tiny entry with a spiralling staircase and every..."}, {"placeName": " 32. Digamber Jain Mandir Sanghiji", "placeDesc": "Digamber Jain Mandir Sanghiji is a Jain temple situated 16 kms away from Jaipur in the town of Sanganer. Built of red sandstone, the temple enshrine Adinath- the first Jain tirthankara in the central shrine. Boasting of Shikhara style architecture, the temple has several carvings on the inner walls ..."}, {"placeName": " 33. Garh Ganesh Temple", "placeDesc": "Garh Ganesh Temple is an ancient temple built by Maharaja Sawai Jai Singh before he laid the foundation stone of the city of Jaipur. The temple is located near Jaigarh and Nahargarh Forts on the Aravalli Hills. It is dedicated to Lord Ganesh who is revered in Vigra Purushakriti, which means his chil..."}, {"placeName": " 34. Elefantastic", "placeDesc": "Elefantastic, situated at the capital city of Rajasthan, Jaipur, is a place that will change your perception of an elephant sanctuary forever. The elephants here are treated nicely, and it also boasts of its great hospitality, extreme geography, kaleidoscopic culture, deep-rooted spirituality, photo..."}, {"placeName": " 35. Jawahar Circle", "placeDesc": "Jawahar Circle is situated in Malviya Nagar in Jaipur and boasts of being the largest circular park in Asia. The park has a peculiar jogging track and is encircled by a rose garden. Besides, it has play area for kids and kiosks. The main highlight of the park is the dance of the musical fountains wh..."}, {"placeName": " 36. Karauli", "placeDesc": "Karauli is a quaint town located in the state of Rajasthan. The town is famous for sacred places and is home to more than 300 temples. The rich, vibrant and colourful heritage and culture of Rajasthan can be glimpsed in this town which makes it a perfect place to visit on a vacation. Karauli also ha..."}, {"placeName": " 37. Bhandarej", "placeDesc": "Bhandarej located in the Duasa district in Rajasthan is a quaint and perfect place to getaway from the hustle bustle of the city. This is a vibrant and colourful place that is beautifully juxtaposed with the intricate stone monuments. Bhandarej is full of scenic beauty and picturesque landscapes."}, {"placeName": " 38. Samode Palace", "placeDesc": "At a distance of around 56 kms from Jaipur, Samode Palace is a heritage palace cum hotel. A fusion of Muslim and Rajputana architecture, the palace also houses Sheesh Mahal or Hall of Mirrors. It is also surrounded by beautiful gardens which are a treat to the eyes."}, {"placeName": " 39. Hari Mahal Palace", "placeDesc": "Originally a residence of Rajadhiraj Hari Singh of the Achrol family in the 1930s, Hari Mahal Palace has now been partly converted into a heritage luxury hotel. The interesting factor is that half of the palace is still occupied by the members of the royal family."}, {"placeName": " 40. Rajmahal Palace", "placeDesc": "Built in 1729, Rajmahal Palace is a symbol of love by Maharaja Sawai Jai Singh II for his wife. Briefly occupied by the British, the palace has now been restored and converted into a luxury stay. It still houses some of the ancient relics and royal chandeliers from the bygone era."}, {"placeName": " 41. Narain Niwas Palace", "placeDesc": "Built by Thakur of Kanota, General Amar Singh, Narain Niwas Palace boasts of Anglo Indian style of architecture of the Victorian era. The palace has now been converted into a heritage home to give you a glimpse of the opulent royal lifestyle."}, {"placeName": " 42. Shahpura Haveli", "placeDesc": "Originally built as a vantage point nearly 300 years ago, Shahpura Haveli was later converted into a magnificent fortress. The palace has now been converted into a heritage home which boasts of Indo-Saracenic style of architecture. It is frequented by celebrities, politicians and other popular artis..."}]}