{"udupi": [{"placeName": " 1. St. Mary's Island", "placeDesc": "The land where Vasco De Gama set his first foot, the land whose geological importance is immense and whose beauty is spectacular, is St. Mary's Island, Karnataka."}, {"placeName": " 2. Krishna Temple", "placeDesc": "Considered to be one of the most famous pilgrimage sites in South India, the Krishna Temple or the Udupi Sri Krishna Matha is quite a huge name associated with the worship of Lord Krishna. The fascinating idol of the Lord is adorned with jewels and a golden chariot. What makes the temple unique, is ..."}, {"placeName": " 3. Malpe Beach", "placeDesc": "A perfect spot for a carefree getaway, Malpe beach with its blue expanse of sky and the palm trees dotting the shoreline, is a popular tourist spot."}, {"placeName": " 4. Kaup Beach", "placeDesc": "A must visit beach in the area, this might just be one of the most beautiful destinations of the town. Also find here a lighthouse, twinkling at a height of 100 ft."}, {"placeName": " 5. Manipal", "placeDesc": "Well known for the Manipal university, this town is home to multiple educational institutions founded by Dr T M A Pai."}, {"placeName": " 6. Pajaka", "placeDesc": "The birthplace of Sri Madhavacharya, a Dvaita philosopher, this village has a number of attractions that depict or mark the events and life of the philosopher. Find here a Banyan tree grown by him and the Madhava Mandir."}, {"placeName": " 7. City Shopping", "placeDesc": "Ratha Beedi is a popular market near the Krishna Market where one can shop for local spices, vessels, earthenware and handicrafts. One may also go to the City Centre Mall here. While in Udupi, get your hands on the Kanjiwaram Silk Saris and local style jewellery that the town is known for."}, {"placeName": " 8. Chandramoulishwar Temple", "placeDesc": "Devoted to Lord Shiva, this temple must be visited by all devotees before visiting the Krishna Temple."}, {"placeName": " 9. Kodi Beach", "placeDesc": "Surrounded by water on three sides, Kodi Beach is a perfect attraction for beach lovers. River Suvarna enters the gorgeous Arabian Sea at this beach and, therefore, it is also known as the Delta Beach. It has a small port for fisheries and is famous for toddy and freshly prepared seafood."}, {"placeName": " 10. Ananteshwar Temple", "placeDesc": "Dedicated to Lord Shiva, Ananteshwar Temple is an ancient 8th century temple believed to be the oldest in the region. The temple complex also houses Chandramouleshwara and Krishna Temples. The main shrine is made of stone and has a recently installed silver door frame. A Hindu philosopher, Madhavach..."}, {"placeName": " 11. Anegudde Vinayak Temple", "placeDesc": "Anegudde Vinayak Temple is dedicated to Lord Ganesh, who helped Sage Agasthya kill a demon named Kumbhasura, when he was performing penance to help the draught struck village. The idol of the deity is a stunning 12-foot tall naturally found in the form of an elephant. The vibe of this religious attr..."}, {"placeName": " 12. Kudlu Falls", "placeDesc": "Also known as Sita Falls, Kudlu Falls is famous for its picturesque beauty. The waterfall cascades down the Western Ghats from a height of 150 feet in the midst of a dense green cover of the hilly terrain. It requires a moderate level of trekking through the green zone to reach the enchanting waterf..."}, {"placeName": " 13. Coin Museum Corp Bank", "placeDesc": "Coin Museum Corp Bank, also known as Corporation Bank Heritage Museum has an extensive collection of coins belonging to various dynasties dating back to 400 BC. One can also get extensive knowledge about the history of banking in India since 1906. The Corporation Bank's founder's house was remodelle..."}, {"placeName": " 14. Pajaka Kshetra", "placeDesc": "Pajaka Kshetra is the birthplace of a renowned philosopher, Shree Madhavacharya. The place is believed to be highly sacred and has been mentioned in a biographical poem named Sampraday Paddhati written by Shree Hrushikesha, a disciple of Shree Madhavacharya. Several facts and monuments associated wi..."}, {"placeName": " 15. Sri Brahmi Durga Parameshwari Temple", "placeDesc": "Sri Brahmi Durga Parameshwari Temple is dedicated to Goddess Durga Parameshwari who is worshipped in the form of Linga. The Linga is also believed to be the convergence of Maha Lakshmi, Goddess Saraswati and Mahakali. The temple has an evening mangalarti, called the Salaam Mangalarti, dedicated to T..."}, {"placeName": " 16. Anantha Padmanabha Temple", "placeDesc": "Located on the beautiful banks of River Sita, Anantha Padmanabha Temple is a 7th century temple dedicated to Lord Anantha Padmanabha. The temple is said to be built by Krishna Hebbar after a fire destroyed most of the shrine along with the temple car. The new structure now also houses an idol of Lor..."}, {"placeName": " 17. Sri Indrani Panchadurga Parameshwari Temple", "placeDesc": "Sri Indrani Panchadurga Parameshwari Temple is an 11th century shrine dedicated to Goddess Durga. The temple houses five (pancha) Lingas that represent the Goddess and a stone sculpture of Vanadurga. The temple is one of the Shakti Peethas and is situated in a vast temple complex."}, {"placeName": " 18. Mookambika Temple", "placeDesc": "Mookambika Temple is dedicated to Aadiprakarshakti who is believed to embody the powers of three goddesses, Goddess Saraswati, Goddess Mahakali and Maha Lakshmi. The sanctum sanctorum houses a Linga represents Purusha as well as Shakti and is called the Udbhavlinga."}, {"placeName": " 19. Jomlu Teerth", "placeDesc": "Located in the Someshwara Wildlife Sanctuary, Jomlu Teerth is a waterfall formed by the mesmerising River Sita. The fall cascades down a rocky terrain from a height of 20 feet in the middle of the dense natural reserve. The music made by the gushing water body and the birds singing their hearts away..."}, {"placeName": " 20. Anejari Butterfly Camp", "placeDesc": "Anejari Butterfly Camp is an exciting little attraction in the midst of dense foliage of the Mookambila Wildlife Sanctuary. Nature lovers can spend an ample amount of time watching beautiful butterflies and birds in their natural habitat or go on soothing nature walks while adventure seekers can tre..."}]}